[{"OBJECT_NAME":"ONEWEB-0113","OBJECT_ID":"2021-025J","EPOCH":"2025-12-22T01:02:21.812064","MEAN_MOTION":13.13985982,"ECCENTRICITY":0.00019852,"INCLINATION":87.8983,"RA_OF_ASC_NODE":355.3677,"ARG_OF_PERICENTER":93.2462,"MEAN_ANOMALY":266.8895,"EPHEMERIS_TYPE":0,"CLASSIFICATION_TYPE":"U","NORAD_CAT_ID":48050,"ELEMENT_SET_NO":999,"REV_AT_EPOCH":23034,"BSTAR":-0.00033281889,"MEAN_MOTION_DOT":-1.1e-6,"MEAN_MOTION_DDOT":0},{"OBJECT_NAME":"ONEWEB-0112","OBJECT_ID":"2021-025K","EPOCH":"2025-12-21T18:26:15.953280","MEAN_MOTION":13.13471893,"ECCENTRICITY":0.00017475,"INCLINATION":87.8985,"RA_OF_ASC_NODE":355.4596,"ARG_OF_PERICENTER":91.385,"MEAN_ANOMALY":268.748,"EPHEMERIS_TYPE":0,"CLASSIFICATION_TYPE":"U","NORAD_CAT_ID":48051,"ELEMENT_SET_NO":999,"REV_AT_EPOCH":23030,"BSTAR":0.0005787325,"MEAN_MOTION_DOT":2.24e-6,"MEAN_MOTION_DDOT":0},{"OBJECT_NAME":"ONEWEB-0156","OBJECT_ID":"2021-025L","EPOCH":"2025-12-22T05:36:38.847744","MEAN_MOTION":13.13468087,"ECCENTRICITY":0.00016789,"INCLINATION":87.8989,"RA_OF_ASC_NODE":355.3785,"ARG_OF_PERICENTER":91.5589,"MEAN_ANOMALY":268.5733,"EPHEMERIS_TYPE":0,"CLASSIFICATION_TYPE":"U","NORAD_CAT_ID":48052,"ELEMENT_SET_NO":999,"REV_AT_EPOCH":23034,"BSTAR":0.00089124901,"MEAN_MOTION_DOT":3.38e-6,"MEAN_MOTION_DDOT":0},{"OBJECT_NAME":"ONEWEB-0161","OBJECT_ID":"2021-025M","EPOCH":"2025-12-22T06:49:46.320096","MEAN_MOTION":13.13471729,"ECCENTRICITY":0.00015747,"INCLINATION":87.8978,"RA_OF_ASC_NODE":355.3831,"ARG_OF_PERICENTER":90.9898,"MEAN_ANOMALY":269.1411,"EPHEMERIS_TYPE":0,"CLASSIFICATION_TYPE":"U","NORAD_CAT_ID":48053,"ELEMENT_SET_NO":999,"REV_AT_EPOCH":23028,"BSTAR":0.00022615361,"MEAN_MOTION_DOT":9.5e-7,"MEAN_MOTION_DDOT":0},{"OBJECT_NAME":"ONEWEB-0158","OBJECT_ID":"2021-025N","EPOCH":"2025-12-22T00:22:10.488288","MEAN_MOTION":13.13470773,"ECCENTRICITY":0.00020082,"INCLINATION":87.8982,"RA_OF_ASC_NODE":355.4216,"ARG_OF_PERICENTER":82.6559,"MEAN_ANOMALY":277.4798,"EPHEMERIS_TYPE":0,"CLASSIFICATION_TYPE":"U","NORAD_CAT_ID":48054,"ELEMENT_SET_NO":999,"REV_AT_EPOCH":23037,"BSTAR":-2.8495648e-5,"MEAN_MOTION_DOT":2.0e-8,"MEAN_MOTION_DDOT":0},{"OBJECT_NAME":"ONEWEB-0157","OBJECT_ID":"2021-025P","EPOCH":"2025-12-22T06:27:49.691232","MEAN_MOTION":13.13471826,"ECCENTRICITY":0.00013474,"INCLINATION":87.8986,"RA_OF_ASC_NODE":355.3769,"ARG_OF_PERICENTER":88.5528,"MEAN_ANOMALY":271.5756,"EPHEMERIS_TYPE":0,"CLASSIFICATION_TYPE":"U","NORAD_CAT_ID":48055,"ELEMENT_SET_NO":999,"REV_AT_EPOCH":23034,"BSTAR":-0.00064970983,"MEAN_MOTION_DOT":-2.25e-6,"MEAN_MOTION_DDOT":0},{"OBJECT_NAME":"ONEWEB-0162","OBJECT_ID":"2021-025Q","EPOCH":"2025-12-22T05:53:30.340320","MEAN_MOTION":13.13467428,"ECCENTRICITY":0.00017366,"INCLINATION":87.8984,"RA_OF_ASC_NODE":355.3842,"ARG_OF_PERICENTER":94.289,"MEAN_ANOMALY":265.8438,"EPHEMERIS_TYPE":0,"CLASSIFICATION_TYPE":"U","NORAD_CAT_ID":48056,"ELEMENT_SET_NO":999,"REV_AT_EPOCH":23031,"BSTAR":-0.00030071021,"MEAN_MOTION_DOT":-9.7e-7,"MEAN_MOTION_DDOT":0},{"OBJECT_NAME":"ONEWEB-0155","OBJECT_ID":"2021-025R","EPOCH":"2025-12-21T22:44:40.430688","MEAN_MOTION":13.13468736,"ECCENTRICITY":0.00016476,"INCLINATION":87.8981,"RA_OF_ASC_NODE":355.448,"ARG_OF_PERICENTER":84.6312,"MEAN_ANOMALY":275.5005,"EPHEMERIS_TYPE":0,"CLASSIFICATION_TYPE":"U","NORAD_CAT_ID":48057,"ELEMENT_SET_NO":999,"REV_AT_EPOCH":23041,"BSTAR":-0.00063824663,"MEAN_MOTION_DOT":-2.2e-6,"MEAN_MOTION_DDOT":0},{"OBJECT_NAME":"ONEWEB-0149","OBJECT_ID":"2021-025S","EPOCH":"2025-12-21T23:16:20.698464","MEAN_MOTION":13.13470012,"ECCENTRICITY":0.00017897,"INCLINATION":87.8984,"RA_OF_ASC_NODE":355.4373,"ARG_OF_PERICENTER":96.3463,"MEAN_ANOMALY":263.787,"EPHEMERIS_TYPE":0,"CLASSIFICATION_TYPE":"U","NORAD_CAT_ID":48058,"ELEMENT_SET_NO":999,"REV_AT_EPOCH":23022,"BSTAR":-0.00079659795,"MEAN_MOTION_DOT":-2.78e-6,"MEAN_MOTION_DDOT":0},{"OBJECT_NAME":"ONEWEB-0148","OBJECT_ID":"2021-025T","EPOCH":"2025-12-22T05:41:30.515136","MEAN_MOTION":13.13471415,"ECCENTRICITY":0.00016959,"INCLINATION":87.8981,"RA_OF_ASC_NODE":355.4032,"ARG_OF_PERICENTER":109.5207,"MEAN_ANOMALY":250.6105,"EPHEMERIS_TYPE":0,"CLASSIFICATION_TYPE":"U","NORAD_CAT_ID":48059,"ELEMENT_SET_NO":999,"REV_AT_EPOCH":23038,"BSTAR":0.00075217312,"MEAN_MOTION_DOT":2.87e-6,"MEAN_MOTION_DDOT":0},{"OBJECT_NAME":"ONEWEB-0160","OBJECT_ID":"2021-025U","EPOCH":"2025-12-21T22:47:06.271296","MEAN_MOTION":13.13468389,"ECCENTRICITY":0.00025264,"INCLINATION":87.8978,"RA_OF_ASC_NODE":355.4578,"ARG_OF_PERICENTER":85.7368,"MEAN_ANOMALY":274.405,"EPHEMERIS_TYPE":0,"CLASSIFICATION_TYPE":"U","NORAD_CAT_ID":48060,"ELEMENT_SET_NO":999,"REV_AT_EPOCH":23029,"BSTAR":-0.0010643732,"MEAN_MOTION_DOT":-3.76e-6,"MEAN_MOTION_DDOT":0},{"OBJECT_NAME":"ONEWEB-0163","OBJECT_ID":"2021-025V","EPOCH":"2025-12-22T02:04:34.644576","MEAN_MOTION":13.13469266,"ECCENTRICITY":0.00015017,"INCLINATION":87.8987,"RA_OF_ASC_NODE":355.4175,"ARG_OF_PERICENTER":88.0995,"MEAN_ANOMALY":272.0306,"EPHEMERIS_TYPE":0,"CLASSIFICATION_TYPE":"U","NORAD_CAT_ID":48061,"ELEMENT_SET_NO":999,"REV_AT_EPOCH":23043,"BSTAR":0.0004883635,"MEAN_MOTION_DOT":1.91e-6,"MEAN_MOTION_DDOT":0},{"OBJECT_NAME":"ONEWEB-0159","OBJECT_ID":"2021-025W","EPOCH":"2025-12-22T01:52:21.978624","MEAN_MOTION":13.13471128,"ECCENTRICITY":0.00015636,"INCLINATION":87.8985,"RA_OF_ASC_NODE":355.4027,"ARG_OF_PERICENTER":91.87,"MEAN_ANOMALY":268.2608,"EPHEMERIS_TYPE":0,"CLASSIFICATION_TYPE":"U","NORAD_CAT_ID":48062,"ELEMENT_SET_NO":999,"REV_AT_EPOCH":23035,"BSTAR":0.00063371258,"MEAN_MOTION_DOT":2.44e-6,"MEAN_MOTION_DDOT":0},{"OBJECT_NAME":"ONEWEB-0164","OBJECT_ID":"2021-025X","EPOCH":"2025-12-22T06:54:39.523680","MEAN_MOTION":13.13469016,"ECCENTRICITY":0.00018655,"INCLINATION":87.8986,"RA_OF_ASC_NODE":355.3679,"ARG_OF_PERICENTER":87.3019,"MEAN_ANOMALY":272.8323,"EPHEMERIS_TYPE":0,"CLASSIFICATION_TYPE":"U","NORAD_CAT_ID":48063,"ELEMENT_SET_NO":999,"REV_AT_EPOCH":23036,"BSTAR":0.00085335456,"MEAN_MOTION_DOT":3.24e-6,"MEAN_MOTION_DDOT":0},{"OBJECT_NAME":"ONEWEB-0167","OBJECT_ID":"2021-025Y","EPOCH":"2025-12-21T22:26:24.965952","MEAN_MOTION":13.1346892,"ECCENTRICITY":0.00014368,"INCLINATION":87.8979,"RA_OF_ASC_NODE":355.4651,"ARG_OF_PERICENTER":65.4792,"MEAN_ANOMALY":294.6487,"EPHEMERIS_TYPE":0,"CLASSIFICATION_TYPE":"U","NORAD_CAT_ID":48064,"ELEMENT_SET_NO":999,"REV_AT_EPOCH":23030,"BSTAR":2.804303e-5,"MEAN_MOTION_DOT":2.3e-7,"MEAN_MOTION_DDOT":0},{"OBJECT_NAME":"ONEWEB-0166","OBJECT_ID":"2021-025Z","EPOCH":"2025-12-22T06:18:04.161024","MEAN_MOTION":13.13468854,"ECCENTRICITY":0.0001703,"INCLINATION":87.8981,"RA_OF_ASC_NODE":355.3569,"ARG_OF_PERICENTER":95.2627,"MEAN_ANOMALY":264.8696,"EPHEMERIS_TYPE":0,"CLASSIFICATION_TYPE":"U","NORAD_CAT_ID":48065,"ELEMENT_SET_NO":999,"REV_AT_EPOCH":23042,"BSTAR":-0.0012031306,"MEAN_MOTION_DOT":-4.27e-6,"MEAN_MOTION_DDOT":0}]
