ONEWEB-0113             
1 48050U 21025J   25356.04330801 -.00000110  00000+0 -33282-3 0  9991
2 48050  87.8983 355.3677 0001985  93.2462 266.8895 13.13985982230342
ONEWEB-0112             
1 48051U 21025K   25355.76824020  .00000224  00000+0  57873-3 0  9997
2 48051  87.8985 355.4596 0001747  91.3850 268.7480 13.13471893230300
ONEWEB-0156             
1 48052U 21025L   25356.23378296  .00000338  00000+0  89125-3 0  9991
2 48052  87.8989 355.3785 0001678  91.5589 268.5733 13.13468087230342
ONEWEB-0161             
1 48053U 21025M   25356.28456389  .00000095  00000+0  22615-3 0  9998
2 48053  87.8978 355.3831 0001574  90.9898 269.1411 13.13471729230284
ONEWEB-0158             
1 48054U 21025N   25356.01539917  .00000002  00000+0 -28496-4 0  9992
2 48054  87.8982 355.4216 0002008  82.6559 277.4798 13.13470773230371
ONEWEB-0157             
1 48055U 21025P   25356.26932513 -.00000225  00000+0 -64971-3 0  9994
2 48055  87.8986 355.3769 0001347  88.5528 271.5756 13.13471826230340
ONEWEB-0162             
1 48056U 21025Q   25356.24549005 -.00000097  00000+0 -30071-3 0  9994
2 48056  87.8984 355.3842 0001736  94.2890 265.8438 13.13467428230312
ONEWEB-0155             
1 48057U 21025R   25355.94769017 -.00000220  00000+0 -63825-3 0  9999
2 48057  87.8981 355.4480 0001647  84.6312 275.5005 13.13468736230414
ONEWEB-0149             
1 48058U 21025S   25355.96968401 -.00000278  00000+0 -79660-3 0  9997
2 48058  87.8984 355.4373 0001789  96.3463 263.7870 13.13470012230221
ONEWEB-0148             
1 48059U 21025T   25356.23715874  .00000287  00000+0  75217-3 0  9995
2 48059  87.8981 355.4032 0001695 109.5207 250.6105 13.13471415230381
ONEWEB-0160             
1 48060U 21025U   25355.94937814 -.00000376  00000+0 -10644-2 0  9997
2 48060  87.8978 355.4578 0002526  85.7368 274.4050 13.13468389230290
ONEWEB-0163             
1 48061U 21025V   25356.08651209  .00000191  00000+0  48836-3 0  9993
2 48061  87.8987 355.4175 0001501  88.0995 272.0306 13.13469266230437
ONEWEB-0159             
1 48062U 21025W   25356.07803216  .00000244  00000+0  63371-3 0  9990
2 48062  87.8985 355.4027 0001563  91.8700 268.2608 13.13471128230359
ONEWEB-0164             
1 48063U 21025X   25356.28795745  .00000324  00000+0  85335-3 0  9994
2 48063  87.8986 355.3679 0001865  87.3019 272.8323 13.13469016230360
ONEWEB-0167             
1 48064U 21025Y   25355.93501118  .00000023  00000+0  28043-4 0  9995
2 48064  87.8979 355.4651 0001436  65.4792 294.6487 13.13468920230303
ONEWEB-0166             
1 48065U 21025Z   25356.26254816 -.00000427  00000+0 -12031-2 0  9991
2 48065  87.8981 355.3569 0001703  95.2627 264.8696 13.13468854230429
